STARLINK-31681          
1 59746U 24090S   26068.57999602 -.00000958  00000+0 -25270-4 0  9998
2 59746  43.0005 177.1655 0001270 261.5007  98.5701 15.27594916103506
TEVEL2-8                
1 63239U 25052AF  26068.66815442  .00019130  00000+0  69304-3 0  9993
2 63239  97.4055 324.2923 0008031 124.9191 235.2804 15.28392908 54807
